ONEWEB-0121             
1 47267U 20100K   26145.11711869  .00000394  00000+0  10596-2 0  9999
2 47267  87.8960 355.2442 0002006  79.0660 281.0694 13.12441099261617
ONEWEB-0122             
1 47268U 20100L   26145.11119027  .00000451  00000+0  12178-2 0  9990
2 47268  87.8962 355.2494 0001614  85.2126 274.9187 13.12441426261529
ONEWEB-0123             
1 47269U 20100M   26145.10696074  .00000469  00000+0  12686-2 0  9995
2 47269  87.8950 355.2603 0001834  88.6093 271.5246 13.12442374261660
ONEWEB-0124             
1 47270U 20100N   26145.09679310  .00000255  00000+0  67221-3 0  9998
2 47270  87.8948 355.2657 0001865  83.9414 276.1927 13.12443370261548
ONEWEB-0125             
1 47271U 20100P   26145.07476345 -.00000379  00000+0 -10889-2 0  9996
2 47271  87.8961 355.2504 0002102  85.9082 274.2287 13.12443387261606
ONEWEB-0126             
1 47272U 20100Q   26145.09522789  .00000275  00000+0  72875-3 0  9990
2 47272  87.8954 355.2637 0001500 106.9654 253.1639 13.12444263261674
ONEWEB-0127             
1 47273U 20100R   26145.13744126 -.00000236  00000+0 -69049-3 0  9995
2 47273  87.8947 355.2555 0001684  88.6382 271.4939 13.12441363261701
ONEWEB-0128             
1 47274U 20100S   26145.08321523 -.00000219  00000+0 -64497-3 0  9995
2 47274  87.8947 355.2800 0001725  75.9843 284.1477 13.12442223261717
ONEWEB-0129             
1 47275U 20100T   26145.13912562 -.00000323  00000+0 -93429-3 0  9994
2 47275  87.8959 355.2403 0001206 125.1269 234.9972 13.12440731261652
ONEWEB-0130             
1 47276U 20100U   26145.09000917 -.00000038  00000+0 -14147-3 0  9995
2 47276  87.8961 355.2450 0001683  85.4054 274.7267 13.12443195261619
ONEWEB-0131             
1 47277U 20100V   26145.08661573 -.00000157  00000+0 -47301-3 0  9996
2 47277  87.8949 355.2665 0001745  85.2000 274.9328 13.12443785261651
ONEWEB-0132             
1 47278U 20100W   26145.11543190  .00000381  00000+0  10234-2 0  9996
2 47278  87.8952 355.2619 0001772  84.5375 275.5956 13.12441423261552
ONEWEB-0133             
1 47279U 20100X   26145.13222800 -.00000091  00000+0 -28733-3 0  9995
2 47279  87.8964 355.2321 0001739  80.5295 279.6030 13.12441607261716
ONEWEB-0134             
1 47280U 20100Y   26145.10187618  .00002333  00000+0  64500-2 0  9991
2 47280  87.8963 355.2352 0001791  82.9919 277.1413 13.12433548261687
ONEWEB-0135             
1 47281U 20100Z   26145.07306456 -.00000390  00000+0 -11207-2 0  9990
2 47281  87.8951 355.2668 0001547  78.8083 281.3219 13.12442557261704
ONEWEB-0136             
1 47282U 20100AA  26145.09170117  .00000087  00000+0  20726-3 0  9994
2 47282  87.8960 355.2425 0001482  82.9828 277.1469 13.12443582261638
