[{"OBJECT_NAME":"ONEWEB-0121","OBJECT_ID":"2020-100K","EPOCH":"2026-05-25T02:48:39.054816","MEAN_MOTION":13.12441099,"ECCENTRICITY":0.0002006,"INCLINATION":87.896,"RA_OF_ASC_NODE":355.2442,"ARG_OF_PERICENTER":79.066,"MEAN_ANOMALY":281.0694,"EPHEMERIS_TYPE":0,"CLASSIFICATION_TYPE":"U","NORAD_CAT_ID":47267,"ELEMENT_SET_NO":999,"REV_AT_EPOCH":26161,"BSTAR":0.0010596,"MEAN_MOTION_DOT":3.94e-06,"MEAN_MOTION_DDOT":0.0},{"OBJECT_NAME":"ONEWEB-0122","OBJECT_ID":"2020-100L","EPOCH":"2026-05-25T02:40:06.839328","MEAN_MOTION":13.12441426,"ECCENTRICITY":0.0001614,"INCLINATION":87.8962,"RA_OF_ASC_NODE":355.2494,"ARG_OF_PERICENTER":85.2126,"MEAN_ANOMALY":274.9187,"EPHEMERIS_TYPE":0,"CLASSIFICATION_TYPE":"U","NORAD_CAT_ID":47268,"ELEMENT_SET_NO":999,"REV_AT_EPOCH":26152,"BSTAR":0.0012178,"MEAN_MOTION_DOT":4.51e-06,"MEAN_MOTION_DDOT":0.0},{"OBJECT_NAME":"ONEWEB-0123","OBJECT_ID":"2020-100M","EPOCH":"2026-05-25T02:34:01.407936","MEAN_MOTION":13.12442374,"ECCENTRICITY":0.0001834,"INCLINATION":87.895,"RA_OF_ASC_NODE":355.2603,"ARG_OF_PERICENTER":88.6093,"MEAN_ANOMALY":271.5246,"EPHEMERIS_TYPE":0,"CLASSIFICATION_TYPE":"U","NORAD_CAT_ID":47269,"ELEMENT_SET_NO":999,"REV_AT_EPOCH":26166,"BSTAR":0.0012686,"MEAN_MOTION_DOT":4.69e-06,"MEAN_MOTION_DDOT":0.0},{"OBJECT_NAME":"ONEWEB-0124","OBJECT_ID":"2020-100N","EPOCH":"2026-05-25T02:19:22.923840","MEAN_MOTION":13.1244337,"ECCENTRICITY":0.0001865,"INCLINATION":87.8948,"RA_OF_ASC_NODE":355.2657,"ARG_OF_PERICENTER":83.9414,"MEAN_ANOMALY":276.1927,"EPHEMERIS_TYPE":0,"CLASSIFICATION_TYPE":"U","NORAD_CAT_ID":47270,"ELEMENT_SET_NO":999,"REV_AT_EPOCH":26154,"BSTAR":0.00067221,"MEAN_MOTION_DOT":2.55e-06,"MEAN_MOTION_DDOT":0.0},{"OBJECT_NAME":"ONEWEB-0125","OBJECT_ID":"2020-100P","EPOCH":"2026-05-25T01:47:39.562080","MEAN_MOTION":13.12443387,"ECCENTRICITY":0.0002102,"INCLINATION":87.8961,"RA_OF_ASC_NODE":355.2504,"ARG_OF_PERICENTER":85.9082,"MEAN_ANOMALY":274.2287,"EPHEMERIS_TYPE":0,"CLASSIFICATION_TYPE":"U","NORAD_CAT_ID":47271,"ELEMENT_SET_NO":999,"REV_AT_EPOCH":26160,"BSTAR":-0.0010889,"MEAN_MOTION_DOT":-3.79e-06,"MEAN_MOTION_DDOT":0.0},{"OBJECT_NAME":"ONEWEB-0126","OBJECT_ID":"2020-100Q","EPOCH":"2026-05-25T02:17:07.689696","MEAN_MOTION":13.12444263,"ECCENTRICITY":0.00015,"INCLINATION":87.8954,"RA_OF_ASC_NODE":355.2637,"ARG_OF_PERICENTER":106.9654,"MEAN_ANOMALY":253.1639,"EPHEMERIS_TYPE":0,"CLASSIFICATION_TYPE":"U","NORAD_CAT_ID":47272,"ELEMENT_SET_NO":999,"REV_AT_EPOCH":26167,"BSTAR":0.00072875,"MEAN_MOTION_DOT":2.75e-06,"MEAN_MOTION_DDOT":0.0},{"OBJECT_NAME":"ONEWEB-0127","OBJECT_ID":"2020-100R","EPOCH":"2026-05-25T03:17:54.924864","MEAN_MOTION":13.12441363,"ECCENTRICITY":0.0001684,"INCLINATION":87.8947,"RA_OF_ASC_NODE":355.2555,"ARG_OF_PERICENTER":88.6382,"MEAN_ANOMALY":271.4939,"EPHEMERIS_TYPE":0,"CLASSIFICATION_TYPE":"U","NORAD_CAT_ID":47273,"ELEMENT_SET_NO":999,"REV_AT_EPOCH":26170,"BSTAR":-0.0006904900000000001,"MEAN_MOTION_DOT":-2.36e-06,"MEAN_MOTION_DDOT":0.0},{"OBJECT_NAME":"ONEWEB-0128","OBJECT_ID":"2020-100S","EPOCH":"2026-05-25T01:59:49.795872","MEAN_MOTION":13.12442223,"ECCENTRICITY":0.0001725,"INCLINATION":87.8947,"RA_OF_ASC_NODE":355.28,"ARG_OF_PERICENTER":75.9843,"MEAN_ANOMALY":284.1477,"EPHEMERIS_TYPE":0,"CLASSIFICATION_TYPE":"U","NORAD_CAT_ID":47274,"ELEMENT_SET_NO":999,"REV_AT_EPOCH":26171,"BSTAR":-0.00064497,"MEAN_MOTION_DOT":-2.19e-06,"MEAN_MOTION_DDOT":0.0},{"OBJECT_NAME":"ONEWEB-0129","OBJECT_ID":"2020-100T","EPOCH":"2026-05-25T03:20:20.453568","MEAN_MOTION":13.12440731,"ECCENTRICITY":0.0001206,"INCLINATION":87.8959,"RA_OF_ASC_NODE":355.2403,"ARG_OF_PERICENTER":125.1269,"MEAN_ANOMALY":234.9972,"EPHEMERIS_TYPE":0,"CLASSIFICATION_TYPE":"U","NORAD_CAT_ID":47275,"ELEMENT_SET_NO":999,"REV_AT_EPOCH":26165,"BSTAR":-0.00093429,"MEAN_MOTION_DOT":-3.23e-06,"MEAN_MOTION_DDOT":0.0},{"OBJECT_NAME":"ONEWEB-0130","OBJECT_ID":"2020-100U","EPOCH":"2026-05-25T02:09:36.792288","MEAN_MOTION":13.12443195,"ECCENTRICITY":0.0001683,"INCLINATION":87.8961,"RA_OF_ASC_NODE":355.245,"ARG_OF_PERICENTER":85.4054,"MEAN_ANOMALY":274.7267,"EPHEMERIS_TYPE":0,"CLASSIFICATION_TYPE":"U","NORAD_CAT_ID":47276,"ELEMENT_SET_NO":999,"REV_AT_EPOCH":26161,"BSTAR":-0.00014147,"MEAN_MOTION_DOT":-3.8e-07,"MEAN_MOTION_DDOT":0.0},{"OBJECT_NAME":"ONEWEB-0131","OBJECT_ID":"2020-100V","EPOCH":"2026-05-25T02:04:43.599072","MEAN_MOTION":13.12443785,"ECCENTRICITY":0.0001745,"INCLINATION":87.8949,"RA_OF_ASC_NODE":355.2665,"ARG_OF_PERICENTER":85.2,"MEAN_ANOMALY":274.9328,"EPHEMERIS_TYPE":0,"CLASSIFICATION_TYPE":"U","NORAD_CAT_ID":47277,"ELEMENT_SET_NO":999,"REV_AT_EPOCH":26165,"BSTAR":-0.00047301,"MEAN_MOTION_DOT":-1.57e-06,"MEAN_MOTION_DDOT":0.0},{"OBJECT_NAME":"ONEWEB-0132","OBJECT_ID":"2020-100W","EPOCH":"2026-05-25T02:46:13.316160","MEAN_MOTION":13.12441423,"ECCENTRICITY":0.0001772,"INCLINATION":87.8952,"RA_OF_ASC_NODE":355.2619,"ARG_OF_PERICENTER":84.5375,"MEAN_ANOMALY":275.5956,"EPHEMERIS_TYPE":0,"CLASSIFICATION_TYPE":"U","NORAD_CAT_ID":47278,"ELEMENT_SET_NO":999,"REV_AT_EPOCH":26155,"BSTAR":0.0010234,"MEAN_MOTION_DOT":3.81e-06,"MEAN_MOTION_DDOT":0.0},{"OBJECT_NAME":"ONEWEB-0133","OBJECT_ID":"2020-100X","EPOCH":"2026-05-25T03:10:24.499200","MEAN_MOTION":13.12441607,"ECCENTRICITY":0.0001739,"INCLINATION":87.8964,"RA_OF_ASC_NODE":355.2321,"ARG_OF_PERICENTER":80.5295,"MEAN_ANOMALY":279.603,"EPHEMERIS_TYPE":0,"CLASSIFICATION_TYPE":"U","NORAD_CAT_ID":47279,"ELEMENT_SET_NO":999,"REV_AT_EPOCH":26171,"BSTAR":-0.00028733,"MEAN_MOTION_DOT":-9.1e-07,"MEAN_MOTION_DDOT":0.0},{"OBJECT_NAME":"ONEWEB-0134","OBJECT_ID":"2020-100Y","EPOCH":"2026-05-25T02:26:42.101952","MEAN_MOTION":13.12433548,"ECCENTRICITY":0.0001791,"INCLINATION":87.8963,"RA_OF_ASC_NODE":355.2352,"ARG_OF_PERICENTER":82.9919,"MEAN_ANOMALY":277.1413,"EPHEMERIS_TYPE":0,"CLASSIFICATION_TYPE":"U","NORAD_CAT_ID":47280,"ELEMENT_SET_NO":999,"REV_AT_EPOCH":26168,"BSTAR":0.00645,"MEAN_MOTION_DOT":2.333e-05,"MEAN_MOTION_DDOT":0.0},{"OBJECT_NAME":"ONEWEB-0135","OBJECT_ID":"2020-100Z","EPOCH":"2026-05-25T01:45:12.777984","MEAN_MOTION":13.12442557,"ECCENTRICITY":0.0001547,"INCLINATION":87.8951,"RA_OF_ASC_NODE":355.2668,"ARG_OF_PERICENTER":78.8083,"MEAN_ANOMALY":281.3219,"EPHEMERIS_TYPE":0,"CLASSIFICATION_TYPE":"U","NORAD_CAT_ID":47281,"ELEMENT_SET_NO":999,"REV_AT_EPOCH":26170,"BSTAR":-0.0011207,"MEAN_MOTION_DOT":-3.9e-06,"MEAN_MOTION_DDOT":0.0},{"OBJECT_NAME":"ONEWEB-0136","OBJECT_ID":"2020-100AA","EPOCH":"2026-05-25T02:12:02.981088","MEAN_MOTION":13.12443582,"ECCENTRICITY":0.0001482,"INCLINATION":87.896,"RA_OF_ASC_NODE":355.2425,"ARG_OF_PERICENTER":82.9828,"MEAN_ANOMALY":277.1469,"EPHEMERIS_TYPE":0,"CLASSIFICATION_TYPE":"U","NORAD_CAT_ID":47282,"ELEMENT_SET_NO":999,"REV_AT_EPOCH":26163,"BSTAR":0.00020726,"MEAN_MOTION_DOT":8.7e-07,"MEAN_MOTION_DDOT":0.0}]